{
    "type": "FeatureCollection",
    "features": [
        {
            "type": "Feature",
            "properties": {},
            "geometry": {
                "type": "Polygon",
                "coordinates": [
                    [
                        [
                            38.805126,
                            9.08233
                        ],
                        [
                            38.799939,
                            9.078557
                        ],
                        [
                            38.791312,
                            9.077712
                        ],
                        [
                            38.778179,
                            9.093664
                        ],
                        [
                            38.771217,
                            9.098192
                        ],
                        [
                            38.765312,
                            9.098178
                        ],
                        [
                            38.759458,
                            9.095984
                        ],
                        [
                            38.750936,
                            9.090566
                        ],
                        [
                            38.738149,
                            9.086864
                        ],
                        [
                            38.72715,
                            9.08572
                        ],
                        [
                            38.716705,
                            9.08778
                        ],
                        [
                            38.706796,
                            9.081849
                        ],
                        [
                            38.700706,
                            9.080536
                        ],
                        [
                            38.694157,
                            9.077527
                        ],
                        [
                            38.685442,
                            9.073042
                        ],
                        [
                            38.683688,
                            9.066376
                        ],
                        [
                            38.683539,
                            9.050021
                        ],
                        [
                            38.672547,
                            9.038617
                        ],
                        [
                            38.672126,
                            9.033243
                        ],
                        [
                            38.667259,
                            9.026316
                        ],
                        [
                            38.66653,
                            9.01674
                        ],
                        [
                            38.66699,
                            9.010041
                        ],
                        [
                            38.66013,
                            9.009359
                        ],
                        [
                            38.651967,
                            9.010302
                        ],
                        [
                            38.651055,
                            9.002446
                        ],
                        [
                            38.657802,
                            8.994784
                        ],
                        [
                            38.659402,
                            8.985487
                        ],
                        [
                            38.654635,
                            8.976948
                        ],
                        [
                            38.647059,
                            8.975466
                        ],
                        [
                            38.639386,
                            8.974038
                        ],
                        [
                            38.642835,
                            8.965807
                        ],
                        [
                            38.653347,
                            8.962925
                        ],
                        [
                            38.665396,
                            8.961075
                        ],
                        [
                            38.676262,
                            8.957624
                        ],
                        [
                            38.681017,
                            8.949448
                        ],
                        [
                            38.680633,
                            8.941078
                        ],
                        [
                            38.687907,
                            8.939743
                        ],
                        [
                            38.693845,
                            8.941903
                        ],
                        [
                            38.69684,
                            8.932694
                        ],
                        [
                            38.701954,
                            8.925638
                        ],
                        [
                            38.708441,
                            8.920897
                        ],
                        [
                            38.719143,
                            8.919714
                        ],
                        [
                            38.723433,
                            8.914484
                        ],
                        [
                            38.727239,
                            8.910843
                        ],
                        [
                            38.731055,
                            8.905098
                        ],
                        [
                            38.736518,
                            8.90128
                        ],
                        [
                            38.743596,
                            8.902598
                        ],
                        [
                            38.744483,
                            8.892116
                        ],
                        [
                            38.743164,
                            8.880428
                        ],
                        [
                            38.747287,
                            8.877173
                        ],
                        [
                            38.745194,
                            8.869391
                        ],
                        [
                            38.745523,
                            8.863424
                        ],
                        [
                            38.754115,
                            8.858606
                        ],
                        [
                            38.756469,
                            8.853238
                        ],
                        [
                            38.759249,
                            8.853439
                        ],
                        [
                            38.761589,
                            8.853619
                        ],
                        [
                            38.772991,
                            8.857464
                        ],
                        [
                            38.777465,
                            8.85244
                        ],
                        [
                            38.778379,
                            8.84181
                        ],
                        [
                            38.780593,
                            8.835922
                        ],
                        [
                            38.786737,
                            8.835303
                        ],
                        [
                            38.79205,
                            8.835759
                        ],
                        [
                            38.797576,
                            8.833467
                        ],
                        [
                            38.805496,
                            8.836909
                        ],
                        [
                            38.812542,
                            8.83999
                        ],
                        [
                            38.817451,
                            8.839277
                        ],
                        [
                            38.824373,
                            8.841306
                        ],
                        [
                            38.823848,
                            8.846424
                        ],
                        [
                            38.823925,
                            8.852753
                        ],
                        [
                            38.826267,
                            8.857582
                        ],
                        [
                            38.827058,
                            8.863289
                        ],
                        [
                            38.829424,
                            8.868775
                        ],
                        [
                            38.826921,
                            8.873718
                        ],
                        [
                            38.826007,
                            8.880225
                        ],
                        [
                            38.832971,
                            8.882952
                        ],
                        [
                            38.840675,
                            8.87986
                        ],
                        [
                            38.847147,
                            8.879983
                        ],
                        [
                            38.858314,
                            8.883637
                        ],
                        [
                            38.863847,
                            8.882833
                        ],
                        [
                            38.868729,
                            8.873001
                        ],
                        [
                            38.869796,
                            8.880661
                        ],
                        [
                            38.877498,
                            8.89579
                        ],
                        [
                            38.873328,
                            8.905039
                        ],
                        [
                            38.877206,
                            8.912638
                        ],
                        [
                            38.879452,
                            8.918271
                        ],
                        [
                            38.873562,
                            8.923651
                        ],
                        [
                            38.860883,
                            8.932153
                        ],
                        [
                            38.855562,
                            8.938272
                        ],
                        [
                            38.861431,
                            8.942637
                        ],
                        [
                            38.869491,
                            8.939618
                        ],
                        [
                            38.882776,
                            8.936034
                        ],
                        [
                            38.8914,
                            8.934365
                        ],
                        [
                            38.896747,
                            8.936935
                        ],
                        [
                            38.901109,
                            8.946158
                        ],
                        [
                            38.896286,
                            8.954868
                        ],
                        [
                            38.902842,
                            8.962583
                        ],
                        [
                            38.90398,
                            8.969098
                        ],
                        [
                            38.90625,
                            8.977502
                        ],
                        [
                            38.904947,
                            8.983934
                        ],
                        [
                            38.904313,
                            8.992064
                        ],
                        [
                            38.906059,
                            8.997495
                        ],
                        [
                            38.904994,
                            9.009528
                        ],
                        [
                            38.899168,
                            9.024422
                        ],
                        [
                            38.89642,
                            9.030945
                        ],
                        [
                            38.893347,
                            9.037213
                        ],
                        [
                            38.886325,
                            9.046808
                        ],
                        [
                            38.882944,
                            9.052107
                        ],
                        [
                            38.882976,
                            9.060477
                        ],
                        [
                            38.881958,
                            9.068559
                        ],
                        [
                            38.879111,
                            9.075529
                        ],
                        [
                            38.876321,
                            9.081584
                        ],
                        [
                            38.868219,
                            9.084908
                        ],
                        [
                            38.856752,
                            9.083523
                        ],
                        [
                            38.849528,
                            9.078169
                        ],
                        [
                            38.84857,
                            9.07823
                        ],
                        [
                            38.842569,
                            9.078614
                        ],
                        [
                            38.832131,
                            9.077023
                        ],
                        [
                            38.824735,
                            9.07589
                        ],
                        [
                            38.819157,
                            9.077919
                        ],
                        [
                            38.813376,
                            9.080021
                        ],
                        [
                            38.805126,
                            9.08233
                        ]
                    ]
                ]
            }
        }
    ]
}